ORBCOMM FM05            
1 25117U 97084F   25057.58140304  .00004857  00000+0  14107-2 0  9996
2 25117  45.0134 178.8951 0000721 299.2205  60.8574 14.45275891424605
ORBCOMM FM06            
1 25118U 97084G   25057.67974133  .00004136  00000+0  12034-2 0  9999
2 25118  45.0125 178.2888 0001084 234.2916 263.8378 14.45436320425558
ORBCOMM FM07            
1 25119U 97084H   25057.73416940  .00005029  00000+0  14558-2 0  9999
2 25119  45.0124 178.7825 0001399 326.1600  33.9162 14.45389035425551
ORBCOMM FM03            
1 25158U 98007B   25057.51237631  .00003073  00000+0  11317-2 0  9999
2 25158 107.9705 268.3130 0043549  82.0621 278.5458 14.34063191408170
ORBCOMM FM04            
1 25159U 98007C   25057.86489476  .00002599  00000+0  96156-3 0  9991
2 25159 107.9690 272.1834 0039314  78.6528 281.9025 14.34324098408512
ORBCOMM FM17            
1 25413U 98046A   25057.70036266  .00002704  00000+0  99542-3 0  9995
2 25413  44.9940  58.9228 0003450 334.8329  25.2350 14.34715361387476
ORBCOMM FM18            
1 25414U 98046B   25057.49723824  .00003818  00000+0  12961-2 0  9991
2 25414  44.9942 340.1847 0004544  65.7001 294.4321 14.38023421388319
ORBCOMM FM19            
1 25415U 98046C   25057.53137494  .00003694  00000+0  12602-2 0  9993
2 25415  44.9954 341.8476 0003570  52.3923 117.3364 14.37833969388272
