<?xml version="1.0" encoding="UTF-8"?>
<ndm xmlns:xsi="http://www.w3.org/2001/XMLSchema-instance" xsi:noNamespaceSchemaLocation="https://sanaregistry.org/r/ndmxml_unqualified/ndmxml-2.0.0-master-2.0.xsd">
<omm id="CCSDS_OMM_VERS" version="2.0">
<header><CREATION_DATE/><ORIGINATOR/></header><body><segment><metadata><OBJECT_NAME>ORBCOMM FM05</OBJECT_NAME><OBJECT_ID>1997-084F</OBJECT_ID><CENTER_NAME>EARTH</CENTER_NAME><REF_FRAME>TEME</REF_FRAME><TIME_SYSTEM>UTC</TIME_SYSTEM><MEAN_ELEMENT_THEORY>SGP4</MEAN_ELEMENT_THEORY></metadata><data><meanElements><EPOCH>2025-02-26T13:57:13.222656</EPOCH><MEAN_MOTION>14.45275891</MEAN_MOTION><ECCENTRICITY>.0000721</ECCENTRICITY><INCLINATION>45.0134</INCLINATION><RA_OF_ASC_NODE>178.8951</RA_OF_ASC_NODE><ARG_OF_PERICENTER>299.2205</ARG_OF_PERICENTER><MEAN_ANOMALY>60.8574</MEAN_ANOMALY></meanElements><tleParameters><EPHEMERIS_TYPE>0</EPHEMERIS_TYPE><CLASSIFICATION_TYPE>U</CLASSIFICATION_TYPE><NORAD_CAT_ID>25117</NORAD_CAT_ID><ELEMENT_SET_NO>999</ELEMENT_SET_NO><REV_AT_EPOCH>42460</REV_AT_EPOCH><BSTAR>.14107E-2</BSTAR><MEAN_MOTION_DOT>.4857E-4</MEAN_MOTION_DOT><MEAN_MOTION_DDOT>0</MEAN_MOTION_DDOT></tleParameters></data></segment></body></omm>
<omm id="CCSDS_OMM_VERS" version="2.0">
<header><CREATION_DATE/><ORIGINATOR/></header><body><segment><metadata><OBJECT_NAME>ORBCOMM FM06</OBJECT_NAME><OBJECT_ID>1997-084G</OBJECT_ID><CENTER_NAME>EARTH</CENTER_NAME><REF_FRAME>TEME</REF_FRAME><TIME_SYSTEM>UTC</TIME_SYSTEM><MEAN_ELEMENT_THEORY>SGP4</MEAN_ELEMENT_THEORY></metadata><data><meanElements><EPOCH>2025-02-26T16:18:49.650912</EPOCH><MEAN_MOTION>14.45436320</MEAN_MOTION><ECCENTRICITY>.0001084</ECCENTRICITY><INCLINATION>45.0125</INCLINATION><RA_OF_ASC_NODE>178.2888</RA_OF_ASC_NODE><ARG_OF_PERICENTER>234.2916</ARG_OF_PERICENTER><MEAN_ANOMALY>263.8378</MEAN_ANOMALY></meanElements><tleParameters><EPHEMERIS_TYPE>0</EPHEMERIS_TYPE><CLASSIFICATION_TYPE>U</CLASSIFICATION_TYPE><NORAD_CAT_ID>25118</NORAD_CAT_ID><ELEMENT_SET_NO>999</ELEMENT_SET_NO><REV_AT_EPOCH>42555</REV_AT_EPOCH><BSTAR>.12034E-2</BSTAR><MEAN_MOTION_DOT>.4136E-4</MEAN_MOTION_DOT><MEAN_MOTION_DDOT>0</MEAN_MOTION_DDOT></tleParameters></data></segment></body></omm>
<omm id="CCSDS_OMM_VERS" version="2.0">
<header><CREATION_DATE/><ORIGINATOR/></header><body><segment><metadata><OBJECT_NAME>ORBCOMM FM07</OBJECT_NAME><OBJECT_ID>1997-084H</OBJECT_ID><CENTER_NAME>EARTH</CENTER_NAME><REF_FRAME>TEME</REF_FRAME><TIME_SYSTEM>UTC</TIME_SYSTEM><MEAN_ELEMENT_THEORY>SGP4</MEAN_ELEMENT_THEORY></metadata><data><meanElements><EPOCH>2025-02-26T17:37:12.236160</EPOCH><MEAN_MOTION>14.45389035</MEAN_MOTION><ECCENTRICITY>.0001399</ECCENTRICITY><INCLINATION>45.0124</INCLINATION><RA_OF_ASC_NODE>178.7825</RA_OF_ASC_NODE><ARG_OF_PERICENTER>326.1600</ARG_OF_PERICENTER><MEAN_ANOMALY>33.9162</MEAN_ANOMALY></meanElements><tleParameters><EPHEMERIS_TYPE>0</EPHEMERIS_TYPE><CLASSIFICATION_TYPE>U</CLASSIFICATION_TYPE><NORAD_CAT_ID>25119</NORAD_CAT_ID><ELEMENT_SET_NO>999</ELEMENT_SET_NO><REV_AT_EPOCH>42555</REV_AT_EPOCH><BSTAR>.14558E-2</BSTAR><MEAN_MOTION_DOT>.5029E-4</MEAN_MOTION_DOT><MEAN_MOTION_DDOT>0</MEAN_MOTION_DDOT></tleParameters></data></segment></body></omm>
<omm id="CCSDS_OMM_VERS" version="2.0">
<header><CREATION_DATE/><ORIGINATOR/></header><body><segment><metadata><OBJECT_NAME>ORBCOMM FM03</OBJECT_NAME><OBJECT_ID>1998-007B</OBJECT_ID><CENTER_NAME>EARTH</CENTER_NAME><REF_FRAME>TEME</REF_FRAME><TIME_SYSTEM>UTC</TIME_SYSTEM><MEAN_ELEMENT_THEORY>SGP4</MEAN_ELEMENT_THEORY></metadata><data><meanElements><EPOCH>2025-02-26T12:17:49.313184</EPOCH><MEAN_MOTION>14.34063191</MEAN_MOTION><ECCENTRICITY>.0043549</ECCENTRICITY><INCLINATION>107.9705</INCLINATION><RA_OF_ASC_NODE>268.3130</RA_OF_ASC_NODE><ARG_OF_PERICENTER>82.0621</ARG_OF_PERICENTER><MEAN_ANOMALY>278.5458</MEAN_ANOMALY></meanElements><tleParameters><EPHEMERIS_TYPE>0</EPHEMERIS_TYPE><CLASSIFICATION_TYPE>U</CLASSIFICATION_TYPE><NORAD_CAT_ID>25158</NORAD_CAT_ID><ELEMENT_SET_NO>999</ELEMENT_SET_NO><REV_AT_EPOCH>40817</REV_AT_EPOCH><BSTAR>.11317E-2</BSTAR><MEAN_MOTION_DOT>.3073E-4</MEAN_MOTION_DOT><MEAN_MOTION_DDOT>0</MEAN_MOTION_DDOT></tleParameters></data></segment></body></omm>
<omm id="CCSDS_OMM_VERS" version="2.0">
<header><CREATION_DATE/><ORIGINATOR/></header><body><segment><metadata><OBJECT_NAME>ORBCOMM FM04</OBJECT_NAME><OBJECT_ID>1998-007C</OBJECT_ID><CENTER_NAME>EARTH</CENTER_NAME><REF_FRAME>TEME</REF_FRAME><TIME_SYSTEM>UTC</TIME_SYSTEM><MEAN_ELEMENT_THEORY>SGP4</MEAN_ELEMENT_THEORY></metadata><data><meanElements><EPOCH>2025-02-26T20:45:26.907264</EPOCH><MEAN_MOTION>14.34324098</MEAN_MOTION><ECCENTRICITY>.0039314</ECCENTRICITY><INCLINATION>107.9690</INCLINATION><RA_OF_ASC_NODE>272.1834</RA_OF_ASC_NODE><ARG_OF_PERICENTER>78.6528</ARG_OF_PERICENTER><MEAN_ANOMALY>281.9025</MEAN_ANOMALY></meanElements><tleParameters><EPHEMERIS_TYPE>0</EPHEMERIS_TYPE><CLASSIFICATION_TYPE>U</CLASSIFICATION_TYPE><NORAD_CAT_ID>25159</NORAD_CAT_ID><ELEMENT_SET_NO>999</ELEMENT_SET_NO><REV_AT_EPOCH>40851</REV_AT_EPOCH><BSTAR>.96156E-3</BSTAR><MEAN_MOTION_DOT>.2599E-4</MEAN_MOTION_DOT><MEAN_MOTION_DDOT>0</MEAN_MOTION_DDOT></tleParameters></data></segment></body></omm>
<omm id="CCSDS_OMM_VERS" version="2.0">
<header><CREATION_DATE/><ORIGINATOR/></header><body><segment><metadata><OBJECT_NAME>ORBCOMM FM17</OBJECT_NAME><OBJECT_ID>1998-046A</OBJECT_ID><CENTER_NAME>EARTH</CENTER_NAME><REF_FRAME>TEME</REF_FRAME><TIME_SYSTEM>UTC</TIME_SYSTEM><MEAN_ELEMENT_THEORY>SGP4</MEAN_ELEMENT_THEORY></metadata><data><meanElements><EPOCH>2025-02-26T16:48:31.333824</EPOCH><MEAN_MOTION>14.34715361</MEAN_MOTION><ECCENTRICITY>.000345</ECCENTRICITY><INCLINATION>44.9940</INCLINATION><RA_OF_ASC_NODE>58.9228</RA_OF_ASC_NODE><ARG_OF_PERICENTER>334.8329</ARG_OF_PERICENTER><MEAN_ANOMALY>25.2350</MEAN_ANOMALY></meanElements><tleParameters><EPHEMERIS_TYPE>0</EPHEMERIS_TYPE><CLASSIFICATION_TYPE>U</CLASSIFICATION_TYPE><NORAD_CAT_ID>25413</NORAD_CAT_ID><ELEMENT_SET_NO>999</ELEMENT_SET_NO><REV_AT_EPOCH>38747</REV_AT_EPOCH><BSTAR>.99542E-3</BSTAR><MEAN_MOTION_DOT>.2704E-4</MEAN_MOTION_DOT><MEAN_MOTION_DDOT>0</MEAN_MOTION_DDOT></tleParameters></data></segment></body></omm>
<omm id="CCSDS_OMM_VERS" version="2.0">
<header><CREATION_DATE/><ORIGINATOR/></header><body><segment><metadata><OBJECT_NAME>ORBCOMM FM18</OBJECT_NAME><OBJECT_ID>1998-046B</OBJECT_ID><CENTER_NAME>EARTH</CENTER_NAME><REF_FRAME>TEME</REF_FRAME><TIME_SYSTEM>UTC</TIME_SYSTEM><MEAN_ELEMENT_THEORY>SGP4</MEAN_ELEMENT_THEORY></metadata><data><meanElements><EPOCH>2025-02-26T11:56:01.383936</EPOCH><MEAN_MOTION>14.38023421</MEAN_MOTION><ECCENTRICITY>.0004544</ECCENTRICITY><INCLINATION>44.9942</INCLINATION><RA_OF_ASC_NODE>340.1847</RA_OF_ASC_NODE><ARG_OF_PERICENTER>65.7001</ARG_OF_PERICENTER><MEAN_ANOMALY>294.4321</MEAN_ANOMALY></meanElements><tleParameters><EPHEMERIS_TYPE>0</EPHEMERIS_TYPE><CLASSIFICATION_TYPE>U</CLASSIFICATION_TYPE><NORAD_CAT_ID>25414</NORAD_CAT_ID><ELEMENT_SET_NO>999</ELEMENT_SET_NO><REV_AT_EPOCH>38831</REV_AT_EPOCH><BSTAR>.12961E-2</BSTAR><MEAN_MOTION_DOT>.3818E-4</MEAN_MOTION_DOT><MEAN_MOTION_DDOT>0</MEAN_MOTION_DDOT></tleParameters></data></segment></body></omm>
<omm id="CCSDS_OMM_VERS" version="2.0">
<header><CREATION_DATE/><ORIGINATOR/></header><body><segment><metadata><OBJECT_NAME>ORBCOMM FM19</OBJECT_NAME><OBJECT_ID>1998-046C</OBJECT_ID><CENTER_NAME>EARTH</CENTER_NAME><REF_FRAME>TEME</REF_FRAME><TIME_SYSTEM>UTC</TIME_SYSTEM><MEAN_ELEMENT_THEORY>SGP4</MEAN_ELEMENT_THEORY></metadata><data><meanElements><EPOCH>2025-02-26T12:45:10.794816</EPOCH><MEAN_MOTION>14.37833969</MEAN_MOTION><ECCENTRICITY>.000357</ECCENTRICITY><INCLINATION>44.9954</INCLINATION><RA_OF_ASC_NODE>341.8476</RA_OF_ASC_NODE><ARG_OF_PERICENTER>52.3923</ARG_OF_PERICENTER><MEAN_ANOMALY>117.3364</MEAN_ANOMALY></meanElements><tleParameters><EPHEMERIS_TYPE>0</EPHEMERIS_TYPE><CLASSIFICATION_TYPE>U</CLASSIFICATION_TYPE><NORAD_CAT_ID>25415</NORAD_CAT_ID><ELEMENT_SET_NO>999</ELEMENT_SET_NO><REV_AT_EPOCH>38827</REV_AT_EPOCH><BSTAR>.12602E-2</BSTAR><MEAN_MOTION_DOT>.3694E-4</MEAN_MOTION_DOT><MEAN_MOTION_DDOT>0</MEAN_MOTION_DDOT></tleParameters></data></segment></body></omm>

</ndm>
